STARLINK-1922           
1 46753U 20074Q   26063.16670139  .00211018  00000+0  22871-2 0  9992
2 46753  53.0465 310.7826 0002780  33.5358 151.3735 15.62343070  5912
STARLINK-1928           
1 46758U 20074V   26062.83580789  .00104910  00000+0  10157-2 0  9997
2 46758  53.0457 313.4155 0003582  41.5407 318.5880 15.65605270296284
STARLINK-1832           
1 46780U 20074AT  26063.16670139  .00144178  00000+0  96488-3 0  9990
2 46780  53.0432 295.0958 0005641 113.0102 186.8490 15.74339559  5929
STARLINK-1835           
1 46782U 20074AV  26063.04045068  .00141169  00000+0  18880-2 0  9992
2 46782  53.0470 302.2496 0004863  10.0748 350.0359 15.57069623296450
STARLINK-1882           
1 46784U 20074AX  26063.16670139  .00187574  00000+0  22174-2 0  9991
2 46784  53.0539 301.7946 0008105 112.7348 125.3103 15.60144553  5954
STARLINK-1893           
1 46786U 20074AZ  26063.05575730  .00122133  00000+0  23141-2 0  9997
2 46786  53.0498 291.1518 0002601  65.4635 294.6643 15.47459629296617
STARLINK-1931           
1 46790U 20074BD  26063.16670139  .00260994  00000+0  27014-2 0  9994
2 46790  53.0448 310.2855 0002043  37.5245 146.4551 15.63354573  6027
STARLINK-1934           
1 46792U 20074BF  26063.16670139  .00151171  00000+0  92677-3 0  9990
2 46792  53.0437 294.2408 0003483 106.8840 341.2999 15.76339126  5933
STARLINK-1942           
1 46794U 20074BH  26063.10394911  .00116792  00000+0  23296-2 0  9997
2 46794  53.0485 320.8650 0003614  46.4693 313.6613 15.45991473296207
STARLINK-1944           
1 46796U 20074BK  26063.03923119  .00164311  00000+0  17108-2 0  9994
2 46796  53.0465 298.5828 0000365 228.3114 131.7869 15.63538724296505
STARLINK-1777           
1 47122U 20088A   26062.01728600  .00094468  00000+0  16328-2 0  9996
2 47122  53.0550 315.7578 0001190 173.8291 186.2732 15.50217973291050
STARLINK-1812           
1 47126U 20088E   26063.09989862  .00044708  00000+0  23922-2 0  9998
2 47126  53.0803 325.0606 0002928 112.4647 247.6656 15.14634715291026
STARLINK-1843           
1 47133U 20088M   26063.16670139  .00251732  00000+0  11103-2 0  9993
2 47133  53.0436 271.1113 0001817 301.4000 248.3692 15.83281032  6016
STARLINK-1845           
1 47135U 20088P   26063.07496736  .00126236  00000+0  19451-2 0  9998
2 47135  53.0533 304.4953 0001935 174.7026 185.4004 15.53282798291301
STARLINK-1856           
1 47143U 20088X   26063.16670139  .00169928  00000+0  31406-2 0  9997
2 47143  53.0524 299.6714 0007808 129.2380  97.9369 15.47946020  5989
STARLINK-1871           
1 47157U 20088AM  26063.16384332  .00015142  00000+0  52228-3 0  9993
2 47157  53.1607 322.0365 0001283  96.2290 263.8857 15.30202203291077
