[{"OBJECT_NAME":"STARLINK-1922","OBJECT_ID":"2020-074Q","EPOCH":"2026-03-04T04:00:03.000096","MEAN_MOTION":15.6234307,"ECCENTRICITY":0.000278,"INCLINATION":53.0465,"RA_OF_ASC_NODE":310.7826,"ARG_OF_PERICENTER":33.5358,"MEAN_ANOMALY":151.3735,"EPHEMERIS_TYPE":0,"CLASSIFICATION_TYPE":"U","NORAD_CAT_ID":46753,"ELEMENT_SET_NO":999,"REV_AT_EPOCH":591,"BSTAR":0.0022871,"MEAN_MOTION_DOT":0.00211018,"MEAN_MOTION_DDOT":0},{"OBJECT_NAME":"STARLINK-1928","OBJECT_ID":"2020-074V","EPOCH":"2026-03-03T20:03:33.801696","MEAN_MOTION":15.6560527,"ECCENTRICITY":0.0003582,"INCLINATION":53.0457,"RA_OF_ASC_NODE":313.4155,"ARG_OF_PERICENTER":41.5407,"MEAN_ANOMALY":318.588,"EPHEMERIS_TYPE":0,"CLASSIFICATION_TYPE":"U","NORAD_CAT_ID":46758,"ELEMENT_SET_NO":999,"REV_AT_EPOCH":29628,"BSTAR":0.0010157,"MEAN_MOTION_DOT":0.0010491,"MEAN_MOTION_DDOT":0},{"OBJECT_NAME":"STARLINK-1832","OBJECT_ID":"2020-074AT","EPOCH":"2026-03-04T04:00:03.000096","MEAN_MOTION":15.74339559,"ECCENTRICITY":0.0005641,"INCLINATION":53.0432,"RA_OF_ASC_NODE":295.0958,"ARG_OF_PERICENTER":113.0102,"MEAN_ANOMALY":186.849,"EPHEMERIS_TYPE":0,"CLASSIFICATION_TYPE":"U","NORAD_CAT_ID":46780,"ELEMENT_SET_NO":999,"REV_AT_EPOCH":592,"BSTAR":0.00096488,"MEAN_MOTION_DOT":0.00144178,"MEAN_MOTION_DDOT":0},{"OBJECT_NAME":"STARLINK-1835","OBJECT_ID":"2020-074AV","EPOCH":"2026-03-04T00:58:14.938752","MEAN_MOTION":15.57069623,"ECCENTRICITY":0.0004863,"INCLINATION":53.047,"RA_OF_ASC_NODE":302.2496,"ARG_OF_PERICENTER":10.0748,"MEAN_ANOMALY":350.0359,"EPHEMERIS_TYPE":0,"CLASSIFICATION_TYPE":"U","NORAD_CAT_ID":46782,"ELEMENT_SET_NO":999,"REV_AT_EPOCH":29645,"BSTAR":0.001888,"MEAN_MOTION_DOT":0.00141169,"MEAN_MOTION_DDOT":0},{"OBJECT_NAME":"STARLINK-1882","OBJECT_ID":"2020-074AX","EPOCH":"2026-03-04T04:00:03.000096","MEAN_MOTION":15.60144553,"ECCENTRICITY":0.0008105,"INCLINATION":53.0539,"RA_OF_ASC_NODE":301.7946,"ARG_OF_PERICENTER":112.7348,"MEAN_ANOMALY":125.3103,"EPHEMERIS_TYPE":0,"CLASSIFICATION_TYPE":"U","NORAD_CAT_ID":46784,"ELEMENT_SET_NO":999,"REV_AT_EPOCH":595,"BSTAR":0.0022174,"MEAN_MOTION_DOT":0.00187574,"MEAN_MOTION_DDOT":0},{"OBJECT_NAME":"STARLINK-1893","OBJECT_ID":"2020-074AZ","EPOCH":"2026-03-04T01:20:17.430720","MEAN_MOTION":15.47459629,"ECCENTRICITY":0.0002601,"INCLINATION":53.0498,"RA_OF_ASC_NODE":291.1518,"ARG_OF_PERICENTER":65.4635,"MEAN_ANOMALY":294.6643,"EPHEMERIS_TYPE":0,"CLASSIFICATION_TYPE":"U","NORAD_CAT_ID":46786,"ELEMENT_SET_NO":999,"REV_AT_EPOCH":29661,"BSTAR":0.0023141,"MEAN_MOTION_DOT":0.00122133,"MEAN_MOTION_DDOT":0},{"OBJECT_NAME":"STARLINK-1931","OBJECT_ID":"2020-074BD","EPOCH":"2026-03-04T04:00:03.000096","MEAN_MOTION":15.63354573,"ECCENTRICITY":0.0002043,"INCLINATION":53.0448,"RA_OF_ASC_NODE":310.2855,"ARG_OF_PERICENTER":37.5245,"MEAN_ANOMALY":146.4551,"EPHEMERIS_TYPE":0,"CLASSIFICATION_TYPE":"U","NORAD_CAT_ID":46790,"ELEMENT_SET_NO":999,"REV_AT_EPOCH":602,"BSTAR":0.0027014,"MEAN_MOTION_DOT":0.00260994,"MEAN_MOTION_DDOT":0},{"OBJECT_NAME":"STARLINK-1934","OBJECT_ID":"2020-074BF","EPOCH":"2026-03-04T04:00:03.000096","MEAN_MOTION":15.76339126,"ECCENTRICITY":0.0003483,"INCLINATION":53.0437,"RA_OF_ASC_NODE":294.2408,"ARG_OF_PERICENTER":106.884,"MEAN_ANOMALY":341.2999,"EPHEMERIS_TYPE":0,"CLASSIFICATION_TYPE":"U","NORAD_CAT_ID":46792,"ELEMENT_SET_NO":999,"REV_AT_EPOCH":593,"BSTAR":0.00092677,"MEAN_MOTION_DOT":0.00151171,"MEAN_MOTION_DDOT":0},{"OBJECT_NAME":"STARLINK-1942","OBJECT_ID":"2020-074BH","EPOCH":"2026-03-04T02:29:41.203104","MEAN_MOTION":15.45991473,"ECCENTRICITY":0.0003614,"INCLINATION":53.0485,"RA_OF_ASC_NODE":320.865,"ARG_OF_PERICENTER":46.4693,"MEAN_ANOMALY":313.6613,"EPHEMERIS_TYPE":0,"CLASSIFICATION_TYPE":"U","NORAD_CAT_ID":46794,"ELEMENT_SET_NO":999,"REV_AT_EPOCH":29620,"BSTAR":0.0023296,"MEAN_MOTION_DOT":0.00116792,"MEAN_MOTION_DDOT":0},{"OBJECT_NAME":"STARLINK-1944","OBJECT_ID":"2020-074BK","EPOCH":"2026-03-04T00:56:29.574816","MEAN_MOTION":15.63538724,"ECCENTRICITY":3.65e-5,"INCLINATION":53.0465,"RA_OF_ASC_NODE":298.5828,"ARG_OF_PERICENTER":228.3114,"MEAN_ANOMALY":131.7869,"EPHEMERIS_TYPE":0,"CLASSIFICATION_TYPE":"U","NORAD_CAT_ID":46796,"ELEMENT_SET_NO":999,"REV_AT_EPOCH":29650,"BSTAR":0.0017108,"MEAN_MOTION_DOT":0.00164311,"MEAN_MOTION_DDOT":0},{"OBJECT_NAME":"STARLINK-1777","OBJECT_ID":"2020-088A","EPOCH":"2026-03-03T00:24:53.510400","MEAN_MOTION":15.50217973,"ECCENTRICITY":0.00011904,"INCLINATION":53.055,"RA_OF_ASC_NODE":315.7578,"ARG_OF_PERICENTER":173.8291,"MEAN_ANOMALY":186.2732,"EPHEMERIS_TYPE":0,"CLASSIFICATION_TYPE":"U","NORAD_CAT_ID":47122,"ELEMENT_SET_NO":999,"REV_AT_EPOCH":29105,"BSTAR":0.0016328285,"MEAN_MOTION_DOT":0.00094468,"MEAN_MOTION_DDOT":0},{"OBJECT_NAME":"STARLINK-1812","OBJECT_ID":"2020-088E","EPOCH":"2026-03-04T02:23:51.240768","MEAN_MOTION":15.14634715,"ECCENTRICITY":0.0002928,"INCLINATION":53.0803,"RA_OF_ASC_NODE":325.0606,"ARG_OF_PERICENTER":112.4647,"MEAN_ANOMALY":247.6656,"EPHEMERIS_TYPE":0,"CLASSIFICATION_TYPE":"U","NORAD_CAT_ID":47126,"ELEMENT_SET_NO":999,"REV_AT_EPOCH":29102,"BSTAR":0.0023922,"MEAN_MOTION_DOT":0.00044708,"MEAN_MOTION_DDOT":0},{"OBJECT_NAME":"STARLINK-1843","OBJECT_ID":"2020-088M","EPOCH":"2026-03-04T04:00:03.000096","MEAN_MOTION":15.83281032,"ECCENTRICITY":0.0001817,"INCLINATION":53.0436,"RA_OF_ASC_NODE":271.1113,"ARG_OF_PERICENTER":301.4,"MEAN_ANOMALY":248.3692,"EPHEMERIS_TYPE":0,"CLASSIFICATION_TYPE":"U","NORAD_CAT_ID":47133,"ELEMENT_SET_NO":999,"REV_AT_EPOCH":601,"BSTAR":0.0011103,"MEAN_MOTION_DOT":0.00251732,"MEAN_MOTION_DDOT":0},{"OBJECT_NAME":"STARLINK-1845","OBJECT_ID":"2020-088P","EPOCH":"2026-03-04T01:47:57.179904","MEAN_MOTION":15.53282798,"ECCENTRICITY":0.0001935,"INCLINATION":53.0533,"RA_OF_ASC_NODE":304.4953,"ARG_OF_PERICENTER":174.7026,"MEAN_ANOMALY":185.4004,"EPHEMERIS_TYPE":0,"CLASSIFICATION_TYPE":"U","NORAD_CAT_ID":47135,"ELEMENT_SET_NO":999,"REV_AT_EPOCH":29130,"BSTAR":0.0019451,"MEAN_MOTION_DOT":0.00126236,"MEAN_MOTION_DDOT":0},{"OBJECT_NAME":"STARLINK-1856","OBJECT_ID":"2020-088X","EPOCH":"2026-03-04T04:00:03.000096","MEAN_MOTION":15.4794602,"ECCENTRICITY":0.0007808,"INCLINATION":53.0524,"RA_OF_ASC_NODE":299.6714,"ARG_OF_PERICENTER":129.238,"MEAN_ANOMALY":97.9369,"EPHEMERIS_TYPE":0,"CLASSIFICATION_TYPE":"U","NORAD_CAT_ID":47143,"ELEMENT_SET_NO":999,"REV_AT_EPOCH":598,"BSTAR":0.0031406,"MEAN_MOTION_DOT":0.00169928,"MEAN_MOTION_DDOT":0},{"OBJECT_NAME":"STARLINK-1871","OBJECT_ID":"2020-088AM","EPOCH":"2026-03-04T03:55:56.062848","MEAN_MOTION":15.30202203,"ECCENTRICITY":0.0001283,"INCLINATION":53.1607,"RA_OF_ASC_NODE":322.0365,"ARG_OF_PERICENTER":96.229,"MEAN_ANOMALY":263.8857,"EPHEMERIS_TYPE":0,"CLASSIFICATION_TYPE":"U","NORAD_CAT_ID":47157,"ELEMENT_SET_NO":999,"REV_AT_EPOCH":29107,"BSTAR":0.00052228,"MEAN_MOTION_DOT":0.00015142,"MEAN_MOTION_DDOT":0}]
